STARLINK-4637           
1 53742U 22107AU  22268.58334491 -.01175747  00000+0 -96360-2 0  9999
2 53742  53.2174 171.7551 0001731 144.2846  76.6459 15.72694397  3332
STARLINK-4645           
1 53743U 22107AV  22268.58334491 -.01175619  00000+0 -96693-2 0  9997
2 53743  53.2174 171.7605 0001772 145.5360  72.9446 15.72611005  3333
STARLINK-4670           
1 53744U 22107AW  22268.58334491 -.01175687  00000+0 -96449-2 0  9992
2 53744  53.2174 171.7564 0001553 137.4515  82.8675 15.72673565  3330
STARLINK-4656           
1 53745U 22107AX  22268.58334491 -.01175600  00000+0 -96778-2 0  9993
2 53745  53.2174 171.7619 0001771 145.4924  72.3743 15.72590167  3333
STARLINK-4589           
1 53746U 22107AY  22268.58334491 -.01175642  00000+0 -96609-2 0  9993
2 53746  53.2174 171.7590 0001758 145.1403  73.9538 15.72631846  3335
STARLINK-4657           
1 53747U 22107AZ  22267.50002315  .00437772  92629-4  86848-3 0  9992
2 53747  53.2115 175.0362 0006117 298.4430 194.6689 15.99371517  1309
STARLINK-4669           
1 53748U 22107BA  22268.58334491 -.01175576  00000+0 -96861-2 0  9991
2 53748  53.2174 171.7629 0001808 146.5894  70.6627 15.72569318  3332
STARLINK-4680           
1 53749U 22107BB  22268.58334491 -.01175543  00000+0 -96960-2 0  9996
2 53749  53.2174 171.7645 0001466 132.9781  83.6587 15.72548543  3331
STARLINK-4612           
1 53750U 22107BC  22268.58334491 -.01175521  00000+0 -97045-2 0  9999
2 53750  53.2174 171.7654 0001464 132.8117  83.2093 15.72527705  3338
FALCON 9 DEB            
1 53751U 22107BD  22267.80282411  .00335714  56486-4  77729-3 0  9999
2 53751  53.2125 173.6400 0006324 318.0416  42.0129 15.96639440  3143
SHERPA-LTC2             
1 53752U 22107BE  22268.13123125  .00273826  40428-4  69142-3 0  9997
2 53752  53.2095 172.1385 0008610 343.3788  16.6958 15.95053142  3201
FALCON 9 DEB            
1 53753U 22107BF  22268.18429268  .00341318  58126-4  78391-3 0  9992
2 53753  53.2089 171.7543 0008225 316.3337  43.7042 15.96756354  3210
FALCON 9 DEB            
1 53754U 22107BG  22267.83385099  .00147813  19206-4  45274-3 0  9991
2 53754  53.2136 173.8529 0009162 334.9493  25.1090 15.91587880  3152
FALCON 9 DEB            
1 53755U 22107BH  22268.23147459  .00364171  65983-4  76899-3 0  9991
2 53755  53.2061 171.3264 0005012 302.9789  57.0760 15.98300528  3227
FALCON 9 DEB            
1 53756U 22107BJ  22268.22800383  .00380313  71318-4  79104-3 0  9990
2 53756  53.2080 171.3052 0006238 297.5786  62.4611 15.98549599  3229
CENTISPACE-1 S3         
1 53757U 22108A   22268.40832804 -.00001595  00000+0 -30329-3 0  9990
2 53757  53.5325 267.1906 0009226 335.2109  24.8364 14.58221200  2818
CENTISPACE-1 S4         
1 53758U 22108B   22268.48388573  .00000256  00000+0  95551-4 0  9998
2 53758  53.5296 266.9410 0008825 319.4336  40.5981 14.57719609  2828
KZ-1A R/B               
1 53759U 22108C   22268.27784730  .00510906  10045-4  75591-3 0  9995
2 53759  53.5498 257.4100 0349221 136.5931 226.3154 15.44567131  2948
YAOGAN-35 05A           
1 53760U 22109A   22268.30358987  .00009274  00000+0  38257-3 0  9997
2 53760  34.9958 265.2365 0006332  71.1664 307.4183 15.23288593  2924
YAOGAN-35 05B           
1 53761U 22109B   22268.29979934  .00012819  00000+0  53068-3 0  9993
2 53761  34.9952 265.2082 0005763 100.6853 277.0881 15.23116909  2883
CZ-2D DEB               
1 53762U 22109C   22268.16990435  .00016083  00000+0  64451-3 0  9994
2 53762  34.9978 265.9558 0008506  81.7667 328.0892 15.24156350  2869
YAOGAN-35 05C           
1 53763U 22109D   22268.30313051  .00006290  00000+0  26050-3 0  9996
2 53763  34.9981 265.2328 0005311  84.7445 293.8702 15.23235061  2887
CZ-2D R/B               
1 53764U 22109E   22268.17166163  .00031846  00000+0  12681-2 0  9991
2 53764  34.9992 265.9720 0007921  82.8686 327.5439 15.24262826  2868
EUTELSAT KONNECT VHTS   
1 53765U 22110A   22265.11826723 -.00000236  00000+0 -36740-1 0  9992
2 53765   3.1903 142.7411 7916596 178.9104 324.3178  1.14544836   179
ARIANE 5 R/B            
1 53766U 22110B   22267.97900668  .00000638  00000+0  11215-2 0  9995
2 53766   3.2792 147.2413 8154296 176.3264 200.6654  1.26382012   220
1998-067UE              
1 53767U 98067UE  22267.90596541  .00037511  00000+0  61735-3 0  9997
2 53767  51.6417 202.3795 0002930 339.6293  20.4579 15.51970584  2881
BEAVERCUBE              
1 53768U 98067UF  22268.03638585  .00036245  00000+0  59968-3 0  9996
2 53768  51.6414 201.7502 0000843   9.4545 350.6461 15.51841712  2913
CLICK-A                 
1 53769U 98067UG  22268.03451421  .00058647  00000+0  95065-3 0  9997
2 53769  51.6426 201.7387 0001044 340.4774  19.6176 15.52198929  2915
1998-067UH              
1 53770U 98067UH  22267.12912892  .00064212  00000+0  10209-2 0  9993
2 53770  51.6410 206.1908 0002199 320.7988  39.2843 15.52697969  2779
JAGSAT                  
1 53771U 98067UJ  22268.02915316  .00071962  00000+0  11313-2 0  9995
2 53771  51.6416 201.7025 0002123 321.7172  38.3667 15.52961253  2909
STARLINK-4718           
1 53773U 22111A   22268.58334491  .00123717  00000+0  87849-3 0  9998
2 53773  53.2172 195.2347 0001383 110.4149 242.7096 15.73052779  2214
STARLINK-4719           
1 53774U 22111B   22268.58334491  .00128968  00000+0  91483-3 0  9991
2 53774  53.2174 195.2333 0001312 109.7458 243.9644 15.73057494  2219
STARLINK-4722           
1 53775U 22111C   22268.25001157 -.00033748  00000+0 -23704-3 0  9990
2 53775  53.2166 196.8758 0001184 104.4134 162.1931 15.73196996  2165
STARLINK-4708           
1 53776U 22111D   22268.58334491  .00109294  00000+0  77764-3 0  9990
2 53776  53.2173 195.2323 0001468 110.0077 244.3055 15.73061336  2214
STARLINK-4664           
1 53777U 22111E   22268.25001157  .00002629  00000+0  23173-4 0  9995
2 53777  53.2165 196.8745 0001180 101.6764 166.1310 15.73169371  2168
STARLINK-4709           
1 53778U 22111F   22267.91667824 -.00067145  00000+0 -47698-3 0  9990
2 53778  53.2162 198.5258 0001371 112.7097  64.3107 15.73240622  1305
STARLINK-4706           
1 53779U 22111G   22268.58334491  .00131142  00000+0  93033-3 0  9997
2 53779  53.2174 195.2266 0001413 111.3236 245.9774 15.73047452  2213
STARLINK-4678           
1 53780U 22111H   22268.25001157 -.00007166  00000+0 -46723-4 0  9998
2 53780  53.2178 196.8764 0001236 102.8405 164.3641 15.73181101  2166
STARLINK-4462           
1 53781U 22111J   22268.58334491 -.00004927  00000+0 -30809-4 0  9995
2 53781  53.2180 195.2190 0001396 129.0531 230.1191 15.73125638  2215
STARLINK-4679           
1 53782U 22111K   22268.58334491  .00047796  00000+0  34420-3 0  9997
2 53782  53.2179 195.2211 0001203 130.5188 227.4082 15.73120190  2216
STARLINK-4536           
1 53783U 22111L   22268.25001157  .00032928  00000+0  24005-3 0  9991
2 53783  53.2179 196.8667 0001200 111.4950 160.4221 15.73009103  2166
STARLINK-4687           
1 53784U 22111M   22267.91667824 -.00003368  00000+0 -19595-4 0  9990
2 53784  53.2178 198.5183 0001474 120.5858  60.1414 15.73187957  1308
STARLINK-4638           
1 53785U 22111N   22268.25001157  .00177959  00000+0  80664-3 0  9990
2 53785  53.2042 196.2076 0006432 306.3427 283.0172 15.82887419  2173
STARLINK-4631           
1 53786U 22111P   22268.58334491  .00027659  00000+0  20146-3 0  9997
2 53786  53.2166 195.2164 0001474 129.5851 230.1769 15.73127577  2217
STARLINK-4743           
1 53787U 22111Q   22268.58334491  .00682252  00000+0  46556-2 0  9996
2 53787  53.2177 195.2141 0002096 139.8737 223.6023 15.72303918  2217
STARLINK-4744           
1 53788U 22111R   22267.91667824  .00092660  00000+0  42586-3 0  9990
2 53788  53.2044 197.8788 0006189 303.3372 185.8545 15.82881250  1304
STARLINK-4666           
1 53789U 22111S   22268.58334491 -.00046354  00000+0 -32577-3 0  9996
2 53789  53.2175 195.2103 0000624  94.0638 269.3970 15.73337350  2218
STARLINK-4734           
1 53790U 22111T   22268.58334491 -.00236427  00000+0 -17100-2 0  9994
2 53790  53.2177 195.2179 0001031  75.6740 286.0408 15.73442964  2217
STARLINK U              
1 53791U 22111U   22268.14654627  .00117987  00000+0  53987-3 0  9994
2 53791  53.2042 196.7246 0006496 305.3791  54.6626 15.82875367  2239
STARLINK-4739           
1 53792U 22111V   22267.91667824 -.00183656  00000+0 -13311-2 0  9996
2 53792  53.2177 198.5081 0001514 123.8791  62.0281 15.73230448  1307
STARLINK-4728           
1 53793U 22111W   22268.58334491 -.00332806  00000+0 -24201-2 0  9995
2 53793  53.2178 195.2129 0000924  85.3495 279.1772 15.73598691  2217
STARLINK-4730           
1 53794U 22111X   22268.58334491 -.00235807  00000+0 -17035-2 0  9996
2 53794  53.2175 195.2129 0000881 102.1067 261.9535 15.73469010  2218
STARLINK-4742           
1 53795U 22111Y   22268.58334491 -.00285307  00000+0 -20675-2 0  9991
2 53795  53.2176 195.2111 0001438 123.1549 242.0234 15.73540521  2211
STARLINK Z              
1 53796U 22111Z   22268.08293083  .00132714  00000+0  60243-3 0  9995
2 53796  53.2042 197.0384 0006430 306.5031  53.5400 15.82995760  2226
STARLINK-4723           
1 53797U 22111AA  22268.58334491 -.00352707  00000+0 -25475-2 0  9995
2 53797  53.2182 195.2094 0001138  73.4663 292.5316 15.73811046  2215
STARLINK-4712           
1 53798U 22111AB  22268.58334491 -.00312115  00000+0 -22580-2 0  9999
2 53798  53.2174 195.2098 0000653  52.7606 312.8498 15.73659625  2208
STARLINK-4710           
1 53799U 22111AC  22268.58334491 -.00143757  00000+0 -10268-2 0  9994
2 53799  53.2178 195.2065 0000983  88.9982 278.6195 15.73440771  2204
STARLINK-4720           
1 53800U 22111AD  22268.58334491 -.00326210  00000+0 -23464-2 0  9996
2 53800  53.2180 195.2077 0001014  71.0866 295.4559 15.73832027  2203
STARLINK-4715           
1 53801U 22111AE  22268.58334491 -.00184031  00000+0 -13166-2 0  9998
2 53801  53.2175 195.2039 0000926  76.1334 292.5579 15.73535648  2202
